CCSDS_OMM_VERS = 2.0
CREATION_DATE  = 
ORIGINATOR     = 

OBJECT_NAME    = FIREFLY ALPHA R/B
OBJECT_ID      = 2026-046B
CENTER_NAME    = EARTH
REF_FRAME      = TEME
TIME_SYSTEM    = UTC
MEAN_ELEMENT_THEORY = SGP/SGP4

EPOCH          = 2026-03-19T06:30:45.998208
MEAN_MOTION    = 15.56452343
ECCENTRICITY   = .00144531
INCLINATION    = 123.0919
RA_OF_ASC_NODE = 247.3869
ARG_OF_PERICENTER = 357.9669
MEAN_ANOMALY   = 2.1330

EPHEMERIS_TYPE = 0
CLASSIFICATION_TYPE = U
NORAD_CAT_ID   = 68128
ELEMENT_SET_NO = 999
REV_AT_EPOCH   = 113
BSTAR          = .40085595E-3
MEAN_MOTION_DOT = .2856E-3
MEAN_MOTION_DDOT = 0

CCSDS_OMM_VERS = 2.0
CREATION_DATE  = 
ORIGINATOR     = 

OBJECT_NAME    = GUOWANG GROUP 20 OBJECT A
OBJECT_ID      = 2026-047A
CENTER_NAME    = EARTH
REF_FRAME      = TEME
TIME_SYSTEM    = UTC
MEAN_ELEMENT_THEORY = SGP/SGP4

EPOCH          = 2026-03-19T01:19:59.032704
MEAN_MOTION    = 14.05638333
ECCENTRICITY   = .00088996
INCLINATION    = 50.0054
RA_OF_ASC_NODE = 32.2608
ARG_OF_PERICENTER = 282.8383
MEAN_ANOMALY   = 77.1528

EPHEMERIS_TYPE = 0
CLASSIFICATION_TYPE = U
NORAD_CAT_ID   = 68129
ELEMENT_SET_NO = 999
REV_AT_EPOCH   = 88
BSTAR          = .2103014E-5
MEAN_MOTION_DOT = -.149E-5
MEAN_MOTION_DDOT = 0

CCSDS_OMM_VERS = 2.0
CREATION_DATE  = 
ORIGINATOR     = 

OBJECT_NAME    = GUOWANG GROUP 20 OBJECT B
OBJECT_ID      = 2026-047B
CENTER_NAME    = EARTH
REF_FRAME      = TEME
TIME_SYSTEM    = UTC
MEAN_ELEMENT_THEORY = SGP/SGP4

EPOCH          = 2026-03-19T01:19:13.162080
MEAN_MOTION    = 14.05761022
ECCENTRICITY   = .00075469
INCLINATION    = 50.0044
RA_OF_ASC_NODE = 32.2582
ARG_OF_PERICENTER = 277.9720
MEAN_ANOMALY   = 82.0329

EPHEMERIS_TYPE = 0
CLASSIFICATION_TYPE = U
NORAD_CAT_ID   = 68130
ELEMENT_SET_NO = 999
REV_AT_EPOCH   = 87
BSTAR          = .2531813E-5
MEAN_MOTION_DOT = -.148E-5
MEAN_MOTION_DDOT = 0

CCSDS_OMM_VERS = 2.0
CREATION_DATE  = 
ORIGINATOR     = 

OBJECT_NAME    = GUOWANG GROUP 20 OBJECT C
OBJECT_ID      = 2026-047C
CENTER_NAME    = EARTH
REF_FRAME      = TEME
TIME_SYSTEM    = UTC
MEAN_ELEMENT_THEORY = SGP/SGP4

EPOCH          = 2026-03-18T21:54:12.159072
MEAN_MOTION    = 14.05810371
ECCENTRICITY   = .00081133
INCLINATION    = 50.0035
RA_OF_ASC_NODE = 32.8342
ARG_OF_PERICENTER = 284.5810
MEAN_ANOMALY   = 75.4196

EPHEMERIS_TYPE = 0
CLASSIFICATION_TYPE = U
NORAD_CAT_ID   = 68131
ELEMENT_SET_NO = 999
REV_AT_EPOCH   = 86
BSTAR          = .3066102E-5
MEAN_MOTION_DOT = -.147E-5
MEAN_MOTION_DDOT = 0

CCSDS_OMM_VERS = 2.0
CREATION_DATE  = 
ORIGINATOR     = 

OBJECT_NAME    = GUOWANG GROUP 20 OBJECT D
OBJECT_ID      = 2026-047D
CENTER_NAME    = EARTH
REF_FRAME      = TEME
TIME_SYSTEM    = UTC
MEAN_ELEMENT_THEORY = SGP/SGP4

EPOCH          = 2026-03-19T03:00:48.676032
MEAN_MOTION    = 14.05881519
ECCENTRICITY   = .0008434
INCLINATION    = 50.0078
RA_OF_ASC_NODE = 31.9684
ARG_OF_PERICENTER = 289.4802
MEAN_ANOMALY   = 70.5192

EPHEMERIS_TYPE = 0
CLASSIFICATION_TYPE = U
NORAD_CAT_ID   = 68132
ELEMENT_SET_NO = 999
REV_AT_EPOCH   = 88
BSTAR          = .3692038E-5
MEAN_MOTION_DOT = -.146E-5
MEAN_MOTION_DDOT = 0

CCSDS_OMM_VERS = 2.0
CREATION_DATE  = 
ORIGINATOR     = 

OBJECT_NAME    = GUOWANG GROUP 20 OBJECT E
OBJECT_ID      = 2026-047E
CENTER_NAME    = EARTH
REF_FRAME      = TEME
TIME_SYSTEM    = UTC
MEAN_ELEMENT_THEORY = SGP/SGP4

EPOCH          = 2026-03-17T01:32:12.575616
MEAN_MOTION    = 14.05931996
ECCENTRICITY   = .00068308
INCLINATION    = 50.0041
RA_OF_ASC_NODE = 40.3867
ARG_OF_PERICENTER = 274.9069
MEAN_ANOMALY   = 85.1056

EPHEMERIS_TYPE = 0
CLASSIFICATION_TYPE = U
NORAD_CAT_ID   = 68133
ELEMENT_SET_NO = 999
REV_AT_EPOCH   = 60
BSTAR          = .463008E-5
MEAN_MOTION_DOT = -.145E-5
MEAN_MOTION_DDOT = 0

CCSDS_OMM_VERS = 2.0
CREATION_DATE  = 
ORIGINATOR     = 

OBJECT_NAME    = GUOWANG GROUP 20 OBJECT F
OBJECT_ID      = 2026-047F
CENTER_NAME    = EARTH
REF_FRAME      = TEME
TIME_SYSTEM    = UTC
MEAN_ELEMENT_THEORY = SGP/SGP4

EPOCH          = 2026-03-18T20:10:11.152704
MEAN_MOTION    = 14.06079857
ECCENTRICITY   = .00063933
INCLINATION    = 50.0090
RA_OF_ASC_NODE = 33.1280
ARG_OF_PERICENTER = 285.5656
MEAN_ANOMALY   = 74.4543

EPHEMERIS_TYPE = 0
CLASSIFICATION_TYPE = U
NORAD_CAT_ID   = 68134
ELEMENT_SET_NO = 999
REV_AT_EPOCH   = 84
BSTAR          = .5430037E-5
MEAN_MOTION_DOT = -.143E-5
MEAN_MOTION_DDOT = 0

CCSDS_OMM_VERS = 2.0
CREATION_DATE  = 
ORIGINATOR     = 

OBJECT_NAME    = GUOWANG GROUP 20 OBJECT G
OBJECT_ID      = 2026-047G
CENTER_NAME    = EARTH
REF_FRAME      = TEME
TIME_SYSTEM    = UTC
MEAN_ELEMENT_THEORY = SGP/SGP4

EPOCH          = 2026-03-19T04:42:06.147936
MEAN_MOTION    = 14.06047332
ECCENTRICITY   = .00073865
INCLINATION    = 50.0116
RA_OF_ASC_NODE = 31.6805
ARG_OF_PERICENTER = 291.8734
MEAN_ANOMALY   = 68.1386

EPHEMERIS_TYPE = 0
CLASSIFICATION_TYPE = U
NORAD_CAT_ID   = 68135
ELEMENT_SET_NO = 999
REV_AT_EPOCH   = 90
BSTAR          = .487513E-5
MEAN_MOTION_DOT = -.144E-5
MEAN_MOTION_DDOT = 0

CCSDS_OMM_VERS = 2.0
CREATION_DATE  = 
ORIGINATOR     = 

OBJECT_NAME    = GUOWANG GROUP 20 OBJECT H
OBJECT_ID      = 2026-047H
CENTER_NAME    = EARTH
REF_FRAME      = TEME
TIME_SYSTEM    = UTC
MEAN_ELEMENT_THEORY = SGP/SGP4

EPOCH          = 2026-03-18T23:34:26.844960
MEAN_MOTION    = 14.06144171
ECCENTRICITY   = .00075099
INCLINATION    = 50.0089
RA_OF_ASC_NODE = 32.5476
ARG_OF_PERICENTER = 297.2561
MEAN_ANOMALY   = 62.7580

EPHEMERIS_TYPE = 0
CLASSIFICATION_TYPE = U
NORAD_CAT_ID   = 68136
ELEMENT_SET_NO = 999
REV_AT_EPOCH   = 86
BSTAR          = .4138608E-5
MEAN_MOTION_DOT = -.146E-5
MEAN_MOTION_DDOT = 0

CCSDS_OMM_VERS = 2.0
CREATION_DATE  = 
ORIGINATOR     = 

OBJECT_NAME    = GUOWANG GROUP 20 OBJECT J
OBJECT_ID      = 2026-047J
CENTER_NAME    = EARTH
REF_FRAME      = TEME
TIME_SYSTEM    = UTC
MEAN_ELEMENT_THEORY = SGP/SGP4

EPOCH          = 2026-03-18T23:33:39.242880
MEAN_MOTION    = 14.06269806
ECCENTRICITY   = .00059129
INCLINATION    = 50.0089
RA_OF_ASC_NODE = 32.5436
ARG_OF_PERICENTER = 296.0035
MEAN_ANOMALY   = 64.0262

EPHEMERIS_TYPE = 0
CLASSIFICATION_TYPE = U
NORAD_CAT_ID   = 68137
ELEMENT_SET_NO = 999
REV_AT_EPOCH   = 87
BSTAR          = .4840452E-5
MEAN_MOTION_DOT = -.144E-5
MEAN_MOTION_DDOT = 0

CCSDS_OMM_VERS = 2.0
CREATION_DATE  = 
ORIGINATOR     = 

OBJECT_NAME    = CZ-8A R/B
OBJECT_ID      = 2026-047K
CENTER_NAME    = EARTH
REF_FRAME      = TEME
TIME_SYSTEM    = UTC
MEAN_ELEMENT_THEORY = SGP/SGP4

EPOCH          = 2026-03-19T07:26:45.256128
MEAN_MOTION    = 14.12228377
ECCENTRICITY   = .00447649
INCLINATION    = 49.9542
RA_OF_ASC_NODE = 30.8861
ARG_OF_PERICENTER = 171.4824
MEAN_ANOMALY   = 188.6853

EPHEMERIS_TYPE = 0
CLASSIFICATION_TYPE = U
NORAD_CAT_ID   = 68138
ELEMENT_SET_NO = 999
REV_AT_EPOCH   = 91
BSTAR          = .14723097E-4
MEAN_MOTION_DOT = -.127E-5
MEAN_MOTION_DDOT = 0

CCSDS_OMM_VERS = 2.0
CREATION_DATE  = 
ORIGINATOR     = 

OBJECT_NAME    = SHIYAN-30 03
OBJECT_ID      = 2026-048A
CENTER_NAME    = EARTH
REF_FRAME      = TEME
TIME_SYSTEM    = UTC
MEAN_ELEMENT_THEORY = SGP/SGP4

EPOCH          = 2026-03-19T06:37:33.928896
MEAN_MOTION    = 14.91675598
ECCENTRICITY   = .00040046
INCLINATION    = 34.9998
RA_OF_ASC_NODE = 86.5900
ARG_OF_PERICENTER = 286.8928
MEAN_ANOMALY   = 73.1338

EPHEMERIS_TYPE = 0
CLASSIFICATION_TYPE = U
NORAD_CAT_ID   = 68139
ELEMENT_SET_NO = 999
REV_AT_EPOCH   = 93
BSTAR          = .22623034E-3
MEAN_MOTION_DOT = .2291E-4
MEAN_MOTION_DDOT = 0

